[{"OBJECT_NAME":"STARLINK-1123","OBJECT_ID":"2020-001S","EPOCH":"2026-03-09T01:09:46.000512","MEAN_MOTION":15.28178758,"ECCENTRICITY":0.00016039,"INCLINATION":53.1509,"RA_OF_ASC_NODE":348.0782,"ARG_OF_PERICENTER":74.6386,"MEAN_ANOMALY":285.4791,"EPHEMERIS_TYPE":0,"CLASSIFICATION_TYPE":"U","NORAD_CAT_ID":44930,"ELEMENT_SET_NO":999,"REV_AT_EPOCH":33977,"BSTAR":0.00048008262,"MEAN_MOTION_DOT":0.00013034,"MEAN_MOTION_DDOT":0},{"OBJECT_NAME":"TIANMU-1 07","OBJECT_ID":"2023-101A","EPOCH":"2026-03-06T13:47:20.454720","MEAN_MOTION":15.29118809,"ECCENTRICITY":0.00046097,"INCLINATION":97.2728,"RA_OF_ASC_NODE":118.5929,"ARG_OF_PERICENTER":142.4105,"MEAN_ANOMALY":217.7458,"EPHEMERIS_TYPE":0,"CLASSIFICATION_TYPE":"U","NORAD_CAT_ID":57399,"ELEMENT_SET_NO":999,"REV_AT_EPOCH":14596,"BSTAR":0.00029794732,"MEAN_MOTION_DOT":8.352e-5,"MEAN_MOTION_DDOT":0}]
